start=new Date('2022-12-12T00:00:00.000Z').valueOf();
sats=[{"OBJECT_ID":"2021-038AZ","TIME_SYSTEM":"UTC","TLE_LINE1":"1 48400U 21038AZ  22344.98737797 -.00001446  00000-0 -78153-4 0  9997","MEAN_MOTION":"15.06412642","APOAPSIS":"548.329","ELEMENT_SET_NO":"999","EPHEMERIS_TYPE":"0","TLE_LINE2":"2 48400  53.0547 259.9621 0001667  64.3658 295.7503 15.06412642 89333","SITE":"AFETR","OBJECT_NAME":"STARLINK-2576","PERIAPSIS":"546.020","ECCENTRICITY":"0.00016670","CENTER_NAME":"EARTH","REF_FRAME":"TEME","INCLINATION":"53.0547","LAUNCH_DATE":"2021-05-04","EPOCH":"2022-12-10T23:41:49.456608","MEAN_MOTION_DDOT":"0.0000000000000","BSTAR":"-0.00007815300000","GP_ID":"219996852","MEAN_ELEMENT_THEORY":"SGP4","FILE":"3689689","DECAY_DATE":null,"CLASSIFICATION_TYPE":"U","SEMIMAJOR_AXIS":"6925.310","OBJECT_TYPE":"PAYLOAD","COUNTRY_CODE":"US","PERIOD":"95.591","NORAD_CAT_ID":"48400","MEAN_MOTION_DOT":"-0.00001446","RA_OF_ASC_NODE":"259.9621","MEAN_ANOMALY":"295.7503","REV_AT_EPOCH":"8933","ARG_OF_PERICENTER":"64.3658","RCS_SIZE":"LARGE"},{"OBJECT_NAME":"STARLINK-2571","PERIAPSIS":"545.980","ECCENTRICITY":"0.00017950","CENTER_NAME":"EARTH","REF_FRAME":"TEME","INCLINATION":"53.0547","OBJECT_ID":"2021-038BA","TIME_SYSTEM":"UTC","TLE_LINE1":"1 48401U 21038BA  22345.15694238  .00002671  00000-0  19815-3 0  9998","MEAN_MOTION":"15.06396985","ELEMENT_SET_NO":"999","APOAPSIS":"548.466","EPHEMERIS_TYPE":"0","SITE":"AFETR","TLE_LINE2":"2 48401  53.0547 259.2142 0001795  54.7511 305.3646 15.06396985 89357","PERIOD":"95.592","COUNTRY_CODE":"US","NORAD_CAT_ID":"48401","MEAN_MOTION_DOT":"0.00002671","RA_OF_ASC_NODE":"259.2142","MEAN_ANOMALY":"305.3646","REV_AT_EPOCH":"8935","ARG_OF_PERICENTER":"54.7511","RCS_SIZE":"LARGE","MEAN_MOTION_DDOT":"0.0000000000000","LAUNCH_DATE":"2021-05-04","BSTAR":"0.00019815000000","EPOCH":"2022-12-11T03:45:59.821632","GP_ID":"220064504","MEAN_ELEMENT_THEORY":"SGP4","FILE":"3691572","DECAY_DATE":null,"CLASSIFICATION_TYPE":"U","SEMIMAJOR_AXIS":"6925.358","OBJECT_TYPE":"PAYLOAD"},{"EPHEMERIS_TYPE":"0","ELEMENT_SET_NO":"999","APOAPSIS":"548.289","MEAN_MOTION":"15.06400841","SITE":"AFETR","TLE_LINE2":"2 48402  53.0553 259.6859 0001557  61.6254 298.4892 15.06400841 88756","TLE_LINE1":"1 48402U 21038BB  22345.04909980 -.00001126  00000-0 -56724-4 0  9997","TIME_SYSTEM":"UTC","OBJECT_ID":"2021-038BB","CENTER_NAME":"EARTH","INCLINATION":"53.0553","REF_FRAME":"TEME","OBJECT_NAME":"STARLINK-2560","PERIAPSIS":"546.133","ECCENTRICITY":"0.00015570","DECAY_DATE":null,"FILE":"3691993","MEAN_ELEMENT_THEORY":"SGP4","OBJECT_TYPE":"PAYLOAD","CLASSIFICATION_TYPE":"U","SEMIMAJOR_AXIS":"6925.346","GP_ID":"220098420","LAUNCH_DATE":"2021-05-04","MEAN_MOTION_DDOT":"0.0000000000000","BSTAR":"-0.00005672400000","EPOCH":"2022-12-11T01:10:42.222720","MEAN_ANOMALY":"298.4892","RCS_SIZE":"LARGE","ARG_OF_PERICENTER":"61.6254","REV_AT_EPOCH":"8875","MEAN_MOTION_DOT":"-0.00001126","NORAD_CAT_ID":"48402","COUNTRY_CODE":"US","PERIOD":"95.592","RA_OF_ASC_NODE":"259.6859"},{"INCLINATION":"53.0537","REF_FRAME":"TEME","CENTER_NAME":"EARTH","ECCENTRICITY":"0.00016850","PERIAPSIS":"546.035","OBJECT_NAME":"STARLINK-2561","TLE_LINE2":"2 48403  53.0537 259.6883 0001685  65.1861 294.9303 15.06403744 89340","SITE":"AFETR","APOAPSIS":"548.369","ELEMENT_SET_NO":"999","MEAN_MOTION":"15.06403744","EPHEMERIS_TYPE":"0","TIME_SYSTEM":"UTC","OBJECT_ID":"2021-038BC","TLE_LINE1":"1 48403U 21038BC  22345.04635496  .00000080  00000-0  24254-4 0  9995","REV_AT_EPOCH":"8934","ARG_OF_PERICENTER":"65.1861","RCS_SIZE":"LARGE","MEAN_ANOMALY":"294.9303","RA_OF_ASC_NODE":"259.6883","PERIOD":"95.592","COUNTRY_CODE":"US","NORAD_CAT_ID":"48403","MEAN_MOTION_DOT":"0.00000080","CLASSIFICATION_TYPE":"U","SEMIMAJOR_AXIS":"6925.337","OBJECT_TYPE":"PAYLOAD","MEAN_ELEMENT_THEORY":"SGP4","DECAY_DATE":null,"FILE":"3689691","LAUNCH_DATE":"2021-05-04","MEAN_MOTION_DDOT":"0.0000000000000","EPOCH":"2022-12-11T01:06:45.068544","BSTAR":"0.00002425400000","GP_ID":"219996889"},{"BSTAR":"0.00075670000000","LAUNCH_DATE":"2021-05-04","MEAN_MOTION_DDOT":"0.0000000000000","EPOCH":"2022-12-11T04:12:31.834944","GP_ID":"219996895","SEMIMAJOR_AXIS":"6925.327","CLASSIFICATION_TYPE":"U","OBJECT_TYPE":"PAYLOAD","MEAN_ELEMENT_THEORY":"SGP4","FILE":"3689691","DECAY_DATE":null,"RA_OF_ASC_NODE":"259.1199","COUNTRY_CODE":"US","PERIOD":"95.592","MEAN_MOTION_DOT":"0.00011009","NORAD_CAT_ID":"48404","REV_AT_EPOCH":"8936","ARG_OF_PERICENTER":"61.8682","RCS_SIZE":"LARGE","MEAN_ANOMALY":"298.2504","OBJECT_ID":"2021-038BD","TIME_SYSTEM":"UTC","TLE_LINE1":"1 48404U 21038BD  22345.17536846  .00011009  00000-0  75670-3 0  9999","TLE_LINE2":"2 48404  53.0534 259.1199 0001949  61.8682 298.2504 15.06406957 89361","SITE":"AFETR","MEAN_MOTION":"15.06406957","ELEMENT_SET_NO":"999","APOAPSIS":"548.542","EPHEMERIS_TYPE":"0","PERIAPSIS":"545.842","ECCENTRICITY":"0.00019490","OBJECT_NAME":"STARLINK-2593","REF_FRAME":"TEME","INCLINATION":"53.0534","CENTER_NAME":"EARTH"},{"RA_OF_ASC_NODE":"259.1124","MEAN_MOTION_DOT":"0.00001063","NORAD_CAT_ID":"48405","COUNTRY_CODE":"US","PERIOD":"95.592","RCS_SIZE":"LARGE","ARG_OF_PERICENTER":"66.6453","REV_AT_EPOCH":"8936","MEAN_ANOMALY":"293.4712","GP_ID":"219996645","BSTAR":"0.00009021700000","LAUNCH_DATE":"2021-05-04","MEAN_MOTION_DDOT":"0.0000000000000","EPOCH":"2022-12-11T04:07:12.535968","OBJECT_TYPE":"PAYLOAD","CLASSIFICATION_TYPE":"U","SEMIMAJOR_AXIS":"6925.341","DECAY_DATE":null,"FILE":"3689691","MEAN_ELEMENT_THEORY":"SGP4","PERIAPSIS":"546.046","ECCENTRICITY":"0.00016750","OBJECT_NAME":"STARLINK-2570","INCLINATION":"53.0562","REF_FRAME":"TEME","CENTER_NAME":"EARTH","TLE_LINE1":"1 48405U 21038BE  22345.17167287  .00001063  00000-0  90217-4 0  9993","TIME_SYSTEM":"UTC","OBJECT_ID":"2021-038BE","TLE_LINE2":"2 48405  53.0562 259.1124 0001675  66.6453 293.4712 15.06402402 89365","SITE":"AFETR","EPHEMERIS_TYPE":"0","APOAPSIS":"548.366","ELEMENT_SET_NO":"999","MEAN_MOTION":"15.06402402"},{"REV_AT_EPOCH":"8936","ARG_OF_PERICENTER":"60.9327","RCS_SIZE":"LARGE","MEAN_ANOMALY":"299.1849","RA_OF_ASC_NODE":"259.1532","PERIOD":"95.592","COUNTRY_CODE":"US","NORAD_CAT_ID":"48406","MEAN_MOTION_DOT":"-0.00000928","SEMIMAJOR_AXIS":"6925.330","CLASSIFICATION_TYPE":"U","OBJECT_TYPE":"PAYLOAD","MEAN_ELEMENT_THEORY":"SGP4","DECAY_DATE":null,"FILE":"3689691","MEAN_MOTION_DDOT":"0.0000000000000","LAUNCH_DATE":"2021-05-04","BSTAR":"-0.00004341700000","EPOCH":"2022-12-11T04:01:54.768000","GP_ID":"219996894","INCLINATION":"53.0534","REF_FRAME":"TEME","CENTER_NAME":"EARTH","ECCENTRICITY":"0.00018640","PERIAPSIS":"545.904","OBJECT_NAME":"STARLINK-2568","SITE":"AFETR","TLE_LINE2":"2 48406  53.0534 259.1532 0001864  60.9327 299.1849 15.06406117 89366","ELEMENT_SET_NO":"999","APOAPSIS":"548.486","MEAN_MOTION":"15.06406117","EPHEMERIS_TYPE":"0","TIME_SYSTEM":"UTC","OBJECT_ID":"2021-038BF","TLE_LINE1":"1 48406U 21038BF  22345.16799500 -.00000928  00000-0 -43417-4 0  9993"},{"ELEMENT_SET_NO":"999","APOAPSIS":"549.097","MEAN_MOTION":"15.06405600","EPHEMERIS_TYPE":"0","SITE":"AFETR","TLE_LINE2":"2 48407  53.0576 259.1586 0002744  45.6511 314.4703 15.06405600 89350","TIME_SYSTEM":"UTC","OBJECT_ID":"2021-038BG","TLE_LINE1":"1 48407U 21038BG  22345.16430654  .00000018  00000-0  20130-4 0  9991","CENTER_NAME":"EARTH","INCLINATION":"53.0576","REF_FRAME":"TEME","OBJECT_NAME":"STARLINK-2595","PERIAPSIS":"545.296","ECCENTRICITY":"0.00027440","MEAN_ELEMENT_THEORY":"SGP4","DECAY_DATE":null,"FILE":"3689693","CLASSIFICATION_TYPE":"U","SEMIMAJOR_AXIS":"6925.331","OBJECT_TYPE":"PAYLOAD","EPOCH":"2022-12-11T03:56:36.085056","LAUNCH_DATE":"2021-05-04","MEAN_MOTION_DDOT":"0.0000000000000","BSTAR":"0.00002013000000","GP_ID":"219996676","MEAN_ANOMALY":"314.4703","REV_AT_EPOCH":"8935","ARG_OF_PERICENTER":"45.6511","RCS_SIZE":"LARGE","COUNTRY_CODE":"US","PERIOD":"95.592","NORAD_CAT_ID":"48407","MEAN_MOTION_DOT":"0.00000018","RA_OF_ASC_NODE":"259.1586"},{"TLE_LINE1":"1 48408U 21038BH  22345.29331393  .00000657  00000-0  62968-4 0  9990","TIME_SYSTEM":"UTC","OBJECT_ID":"2021-038BH","EPHEMERIS_TYPE":"0","ELEMENT_SET_NO":"999","APOAPSIS":"548.212","MEAN_MOTION":"15.06403804","SITE":"AFETR","TLE_LINE2":"2 48408  53.0541 258.5951 0001459  88.5897 271.5259 15.06403804 88786","OBJECT_NAME":"STARLINK-2592","ECCENTRICITY":"0.00014590","PERIAPSIS":"546.191","CENTER_NAME":"EARTH","INCLINATION":"53.0541","REF_FRAME":"TEME","GP_ID":"220097419","LAUNCH_DATE":"2021-05-04","MEAN_MOTION_DDOT":"0.0000000000000","BSTAR":"0.00006296800000","EPOCH":"2022-12-11T07:02:22.323552","DECAY_DATE":null,"FILE":"3691993","MEAN_ELEMENT_THEORY":"SGP4","OBJECT_TYPE":"PAYLOAD","SEMIMAJOR_AXIS":"6925.337","CLASSIFICATION_TYPE":"U","MEAN_MOTION_DOT":"0.00000657","NORAD_CAT_ID":"48408","COUNTRY_CODE":"US","PERIOD":"95.592","RA_OF_ASC_NODE":"258.5951","MEAN_ANOMALY":"271.5259","RCS_SIZE":"LARGE","ARG_OF_PERICENTER":"88.5897","REV_AT_EPOCH":"8878"},{"RA_OF_ASC_NODE":"264.0825","COUNTRY_CODE":"US","PERIOD":"95.592","NORAD_CAT_ID":"48409","MEAN_MOTION_DOT":"0.00002436","REV_AT_EPOCH":"8929","ARG_OF_PERICENTER":"63.2264","RCS_SIZE":"LARGE","MEAN_ANOMALY":"296.8889","LAUNCH_DATE":"2021-05-04","MEAN_MOTION_DDOT":"0.0000000000000","BSTAR":"0.00018237000000","EPOCH":"2022-12-11T04:25:08.451840","GP_ID":"219996688","CLASSIFICATION_TYPE":"U","SEMIMAJOR_AXIS":"6925.342","OBJECT_TYPE":"PAYLOAD","MEAN_ELEMENT_THEORY":"SGP4","FILE":"3689697","DECAY_DATE":null,"ECCENTRICITY":"0.00016120","PERIAPSIS":"546.090","OBJECT_NAME":"STARLINK-2596","REF_FRAME":"TEME","INCLINATION":"53.0532","CENTER_NAME":"EARTH","OBJECT_ID":"2021-038BJ","TIME_SYSTEM":"UTC","TLE_LINE1":"1 48409U 21038BJ  22345.18412560  .00002436  00000-0  18237-3 0  9991","TLE_LINE2":"2 48409  53.0532 264.0825 0001612  63.2264 296.8889 15.06402198 89299","SITE":"AFETR","MEAN_MOTION":"15.06402198","ELEMENT_SET_NO":"999","APOAPSIS":"548.323","EPHEMERIS_TYPE":"0"}];
